GOES 1 (SMS-C)          
1 08366U 75100A   25316.50625662 -.00000101  00000+0  00000+0 0  9996
2 08366   5.1627 280.1631 0006008 332.4379 237.8010  1.00226447182897
GOES 2                  
1 10061U 77048A   25316.00947528 -.00000221  00000+0  00000+0 0  9990
2 10061   6.9398 295.1490 0011784  38.9525 190.0791  0.99396317 44112
GOES 3                  
1 10953U 78062A   25316.77344868 -.00000246  00000+0  00000+0 0  9996
2 10953   7.3943 300.8324 0003310 303.6951 250.4536  0.99365916126383
GOES 4                  
1 11964U 80074A   25316.67074809 -.00000143  00000+0  00000+0 0  9995
2 11964   8.4590 304.5548 0029818 103.3183 252.0835  0.99233150125280
GOES 5                  
1 12472U 81049A   25315.94215949 -.00000289  00000+0  00000+0 0  9995
2 12472   9.7508 317.0695 0004813 299.4595  63.7331  1.00244888120671
GOES 6                  
1 14050U 83041A   25315.53795212 -.00000213  00000+0  00000+0 0  9991
2 14050  10.5405 322.6241 0003998 258.5992 295.1127  1.00227394213838
GOES 7                  
1 17561U 87022A   25316.24483626  .00000023  00000+0  00000+0 0  9994
2 17561  13.1256 339.1579 0001345 340.7606 197.1491  0.99903948124792
GOES 8                  
1 23051U 94022A   25315.88504583 -.00000193  00000+0  00000+0 0  9997
2 23051  14.2438  15.3134 0001101  78.5786 277.8070  0.98907481121973
GOES 9                  
1 23581U 95025A   25316.48571649 -.00000280  00000+0  00000+0 0  9990
2 23581  13.7693  16.1147 0008021 190.6395 173.1547  0.98802553110622
GOES 10                 
1 24786U 97019A   25316.32554844 -.00000050  00000+0  00000+0 0  9999
2 24786  12.8713  22.6466 0032745 231.7642 113.6084  0.99125595103915
GOES 11                 
1 26352U 00022A   25316.82371564  .00000070  00000+0  00000+0 0  9990
2 26352  11.3433  48.5133 0006249 213.6796 144.5772  0.99039780 50329
GOES 12                 
1 26871U 01031A   25316.81946895  .00000020  00000+0  00000+0 0  9996
2 26871  11.7902  39.0726 0006513 269.8314  74.3374  0.99136794 88610
EWS-G1 (GOES 13)        
1 29155U 06018A   25316.76590865 -.00000200  00000+0  00000+0 0  9991
2 29155   3.9697  79.0500 0059721 267.9588 106.5634  0.98787672 41114
GOES 14                 
1 35491U 09033A   25316.21996278 -.00000070  00000+0  00000+0 0  9994
2 35491   1.1185  85.7427 0004147 139.9464 156.6718  1.00272342  4419
EWS-G2 (GOES 15)        
1 36411U 10008A   25316.11101447  .00000030  00000+0  00000+0 0  9991
2 36411   0.7353  85.8719 0006456 160.5150 266.8697  1.00277063 57464
GOES 16                 
1 41866U 16071A   25316.64882131 -.00000094  00000+0  00000+0 0  9992
2 41866   0.0724  84.0839 0003178 163.6255 293.2274  1.00271531 32935
GOES 17                 
1 43226U 18022A   25316.79442214 -.00000185  00000+0  00000+0 0  9993
2 43226   0.3802  89.7260 0003300 174.0056 344.9495  1.00271629 28256
GOES 18                 
1 51850U 22021A   25316.64240793  .00000093  00000+0  00000+0 0  9998
2 51850   0.0447  94.0565 0000800 188.9805 223.2660  1.00271486  4422
GOES 19                 
1 60133U 24119A   25316.79710882 -.00000251  00000+0  00000+0 0  9996
2 60133   0.0099 169.9935 0001159 117.7753 336.1775  1.00272502  4793
